[{"OBJECT_NAME":"ONEWEB-0593","OBJECT_ID":"2022-166T","EPOCH":"2026-03-09T15:26:05.779680","MEAN_MOTION":13.21826902,"ECCENTRICITY":0.00014976,"INCLINATION":87.9164,"RA_OF_ASC_NODE":263.8266,"ARG_OF_PERICENTER":94.5885,"MEAN_ANOMALY":265.542,"EPHEMERIS_TYPE":0,"CLASSIFICATION_TYPE":"U","NORAD_CAT_ID":54659,"ELEMENT_SET_NO":999,"REV_AT_EPOCH":15839,"BSTAR":0.00019980661,"MEAN_MOTION_DOT":9.6e-7,"MEAN_MOTION_DDOT":0},{"OBJECT_NAME":"SL-14 DEB","OBJECT_ID":"1991-056BK","EPOCH":"2026-03-08T19:05:09.771072","MEAN_MOTION":13.19468012,"ECCENTRICITY":0.00216461,"INCLINATION":82.5627,"RA_OF_ASC_NODE":205.6097,"ARG_OF_PERICENTER":347.4477,"MEAN_ANOMALY":12.6105,"EPHEMERIS_TYPE":0,"CLASSIFICATION_TYPE":"U","NORAD_CAT_ID":45321,"ELEMENT_SET_NO":999,"REV_AT_EPOCH":29013,"BSTAR":0.00036913689,"MEAN_MOTION_DOT":1.6e-6,"MEAN_MOTION_DDOT":0}]
